     2              NAVIGATION DATA                         RINEX VERSION / TYPE
CCRINEXN V1.6.0 UX  CDDIS               28-OCT-03 02:47     PGM / RUN BY / DATE 
IGS BROADCAST EPHEMERIS FILE                                COMMENT             
    0.3446D-07  0.7451D-08 -0.1192D-06  0.5960D-07          ION ALPHA           
    0.1413D+06 -0.3277D+05 -0.1311D+06 -0.6554D+05          ION BETA            
    0.931322574615D-08 0.168753899743D-13   147456     1242 DELTA-UTC: A0,A1,T,W
    13                                                      LEAP SECONDS        
                                                            END OF HEADER       
 3 03 10 27  8  0  0.0 0.562863424420D-04 0.329691829393D-11 0.000000000000D+00
    0.110000000000D+02 0.116187500000D+03 0.482662961993D-08 0.641387869842D+00
    0.603869557381D-05 0.496195058804D-02 0.115614384413D-04 0.515365984344D+04
    0.115200000000D+06 0.186264514923D-08-0.274139868123D+01 0.875443220139D-07
    0.929837217761D+00 0.140343750000D+03 0.498577107669D+00-0.816998316974D-08
   -0.128576784311D-09 0.000000000000D+00 0.124200000000D+04 0.000000000000D+00
    0.000000000000D+00 0.000000000000D+00-0.419095158577D-08 0.110000000000D+02
    0.114630000000D+06 0.000000000000D+00 0.000000000000D+00 0.000000000000D+00
 4 03 10 27  8  0  0.0-0.136438757181D-05-0.477484718431D-11 0.000000000000D+00
    0.200000000000D+01 0.852500000000D+02 0.484484452556D-08-0.220905378748D+01
    0.436045229435D-05 0.643888593186D-02 0.127218663692D-05 0.515371772766D+04
    0.115200000000D+06-0.169500708580D-06-0.160041891841D+01-0.108033418655D-06
    0.962553625102D+00 0.360625000000D+03-0.158175710299D+00-0.855678461420D-08
    0.328942262318D-09 0.100000000000D+01 0.124200000000D+04 0.000000000000D+00
    0.240000000000D+01 0.000000000000D+00-0.605359673500D-08 0.770000000000D+03
    0.108018000000D+06 0.400000000000D+01 0.000000000000D+00 0.000000000000D+00
 5 03 10 27  8  0  0.0 0.251177698374D-05 0.147792889038D-11 0.000000000000D+00
    0.238000000000D+03-0.447500000000D+02 0.520843123778D-08-0.258220586397D+01
   -0.222399830818D-05 0.493408425245D-02 0.799633562565D-05 0.515362222671D+04
    0.115200000000D+06 0.000000000000D+00 0.249416443596D+01-0.558793544769D-07
    0.935828569496D+00 0.211062500000D+03 0.777303986883D+00-0.828498796015D-08
   -0.589667419158D-09 0.100000000000D+01 0.124200000000D+04 0.000000000000D+00
    0.200000000000D+01 0.000000000000D+00-0.419095158577D-08 0.238000000000D+03
    0.108018000000D+06 0.400000000000D+01 0.000000000000D+00 0.000000000000D+00
 6 03 10 27  8  0  0.0-0.901054590940D-06-0.341060513165D-12 0.000000000000D+00
    0.390000000000D+02 0.111031250000D+03 0.457840499466D-08-0.141328683232D+01
    0.588409602642D-05 0.649826205336D-02 0.108033418655D-04 0.515365573120D+04
    0.115200000000D+06 0.176951289177D-06-0.268992113950D+01 0.106170773506D-06
    0.937327884977D+00 0.157031250000D+03-0.204072622592D+01-0.805962142987D-08
    0.321441960776D-11 0.000000000000D+00 0.124200000000D+04 0.000000000000D+00
    0.100000000000D+01 0.000000000000D+00-0.512227416039D-08 0.295000000000D+03
    0.108000000000D+06 0.000000000000D+00 0.000000000000D+00 0.000000000000D+00
 7 03 10 27  8  0  0.0 0.640228390694D-03 0.284217094304D-11 0.000000000000D+00
    0.166000000000D+03 0.995000000000D+02 0.461162066394D-08 0.754591665829D+00
    0.520236790180D-05 0.127188833430D-01 0.126250088215D-04 0.515368860626D+04
    0.115200000000D+06-0.212341547012D-06-0.271826365878D+01-0.633299350739D-07
    0.939018137600D+00 0.123093750000D+03-0.185921322280D+01-0.826212986516D-08
   -0.196436753808D-09 0.100000000000D+01 0.124200000000D+04 0.000000000000D+00
    0.000000000000D+00 0.000000000000D+00-0.186264514923D-08 0.166000000000D+03
    0.108000000000D+06 0.000000000000D+00 0.000000000000D+00 0.000000000000D+00
 8 03 10 27  8  0  0.0 0.401273369789D-03 0.113686837722D-12 0.000000000000D+00
    0.103000000000D+03 0.148437500000D+02 0.495877783280D-08-0.121363899198D+01
    0.685453414917D-06 0.902415986639D-02 0.605545938015D-05 0.515368577957D+04
    0.115200000000D+06-0.111758708954D-06 0.155037848596D+01-0.540167093277D-07
    0.962624308915D+00 0.266375000000D+03 0.233153864005D+01-0.824427193180D-08
    0.392159194007D-09 0.100000000000D+01 0.124200000000D+04 0.000000000000D+00
    0.240000000000D+01 0.000000000000D+00-0.419095158577D-08 0.871000000000D+03
    0.108018000000D+06 0.400000000000D+01 0.000000000000D+00 0.000000000000D+00
 9 03 10 27  8  0  0.0-0.137258321047D-04-0.181898940355D-11 0.000000000000D+00
    0.225000000000D+03 0.235312500000D+02 0.514057126828D-08-0.158377388478D+01
    0.133551657200D-05 0.150472617243D-01 0.549666583538D-05 0.515360512161D+04
    0.115200000000D+06 0.296160578728D-06 0.148480731433D+01 0.316649675369D-07
    0.949340426125D+00 0.265656250000D+03 0.997795347964D+00-0.823534303509D-08
    0.376444251843D-09 0.100000000000D+01 0.124200000000D+04 0.000000000000D+00
    0.000000000000D+00 0.000000000000D+00-0.558793544769D-08 0.225000000000D+03
    0.108000000000D+06 0.000000000000D+00 0.000000000000D+00 0.000000000000D+00
10 03 10 27  8  0  0.0 0.333837233484D-04 0.568434188608D-12 0.000000000000D+00
    0.590000000000D+02-0.131375000000D+03 0.427303525896D-08 0.187916320050D+01
   -0.671669840813D-05 0.558114203159D-02 0.469945371151D-05 0.515359465790D+04
    0.115200000000D+06-0.931322574615D-08-0.566590860944D+00 0.968575477600D-07
    0.981027072264D+00 0.301250000000D+03 0.233094050697D+00-0.811176636972D-08
   -0.339656996973D-09 0.100000000000D+01 0.124200000000D+04 0.000000000000D+00
    0.240000000000D+01 0.000000000000D+00-0.232830643654D-08 0.590000000000D+02
    0.108018000000D+06 0.400000000000D+01 0.000000000000D+00 0.000000000000D+00
11 03 10 27  8  0  0.0 0.740801915526D-04 0.216004991671D-11 0.000000000000D+00
    0.183000000000D+03 0.108562500000D+03 0.600703593144D-08-0.515019006346D+00
    0.555999577045D-05 0.221949501429D-02 0.696629285812D-06 0.515370016670D+04
    0.115200000000D+06 0.558793544769D-07-0.171685141995D+01-0.894069671631D-07
    0.909822783897D+00 0.338468750000D+03-0.156597692751D+00-0.917609650697D-08
    0.307512809143D-09 0.000000000000D+00 0.124200000000D+04 0.000000000000D+00
    0.000000000000D+00 0.000000000000D+00-0.116415321827D-07 0.183000000000D+03
    0.114576000000D+06 0.000000000000D+00 0.000000000000D+00 0.000000000000D+00
13 03 10 27  8  0  0.0-0.317236408591D-04-0.113686837722D-12 0.000000000000D+00
    0.100000000000D+03-0.671250000000D+02 0.373515574026D-08 0.208600911420D+01
   -0.352971255779D-05 0.196855876129D-02 0.129248946905D-04 0.515378335190D+04
    0.115200000000D+06-0.745058059692D-07 0.475184494599D+00 0.130385160446D-07
    0.980680262664D+00 0.139500000000D+03 0.717862162595D+00-0.749745510120D-08
    0.409302758353D-09 0.100000000000D+01 0.124200000000D+04 0.000000000000D+00
    0.240000000000D+01 0.000000000000D+00-0.111758708954D-07 0.100000000000D+03
    0.108018000000D+06 0.400000000000D+01 0.000000000000D+00 0.000000000000D+00
14 03 10 27  8  0  0.0-0.193854793906D-04 0.341060513165D-12 0.000000000000D+00
    0.119000000000D+03-0.419687500000D+02 0.401231003977D-08 0.138426174326D+00
   -0.220350921154D-05 0.133969925810D-02 0.126715749502D-04 0.515374817467D+04
    0.115200000000D+06-0.223517417908D-07 0.467047719372D+00-0.558793544769D-08
    0.975180439700D+00 0.143468750000D+03-0.132544778732D+01-0.768782015825D-08
    0.387873289043D-09 0.100000000000D+01 0.124200000000D+04 0.000000000000D+00
    0.400000000000D+01 0.000000000000D+00-0.102445483208D-07 0.631000000000D+03
    0.108018000000D+06 0.400000000000D+01 0.000000000000D+00 0.000000000000D+00
15 03 10 27  8  0  0.0 0.177813228220D-03 0.511590769747D-11 0.000000000000D+00
    0.201000000000D+03 0.507187500000D+02 0.476019828137D-08-0.131639910064D+01
    0.272132456303D-05 0.847541226540D-02 0.780448317528D-06 0.515375824928D+04
    0.115200000000D+06-0.838190317154D-07-0.154942422157D+01 0.558793544769D-08
    0.969473959076D+00 0.377187500000D+03 0.215588780275D+01-0.857607151352D-08
    0.288226291496D-09 0.100000000000D+01 0.124200000000D+04 0.000000000000D+00
    0.280000000000D+01 0.000000000000D+00-0.232830643654D-08 0.201000000000D+03
    0.113868000000D+06 0.400000000000D+01 0.000000000000D+00 0.000000000000D+00
16 03 10 27  8  0  0.0 0.722054392099D-05 0.261479726760D-11 0.000000000000D+00
    0.190000000000D+02-0.223750000000D+02 0.459804860853D-08-0.224784040223D+01
   -0.117532908916D-05 0.204947299790D-02 0.899471342564D-05 0.515369298744D+04
    0.115200000000D+06 0.745058059692D-07 0.256055932409D+01 0.167638063431D-07
    0.961238960604D+00 0.207062500000D+03-0.161436035215D+01-0.792354448720D-08
   -0.667170652058D-09 0.100000000000D+01 0.124200000000D+04 0.000000000000D+00
    0.240000000000D+01 0.000000000000D+00-0.931322574615D-08 0.190000000000D+02
    0.108018000000D+06 0.400000000000D+01 0.000000000000D+00 0.000000000000D+00
17 03 10 27  8  0  0.0 0.118074938655D-03-0.341060513165D-10 0.000000000000D+00
    0.131000000000D+03 0.460937500000D+02 0.459804860853D-08-0.976636132426D+00
    0.252947211266D-05 0.158998536645D-01 0.266358256340D-06 0.515305352783D+04
    0.115200000000D+06 0.275671482086D-06-0.150804590407D+01-0.126659870148D-06
    0.971533924745D+00 0.375687500000D+03-0.284664735692D+01-0.849035330930D-08
    0.298583852087D-09 0.100000000000D+01 0.124200000000D+04 0.000000000000D+00
    0.340000000000D+01 0.000000000000D+00-0.139698386192D-08 0.387000000000D+03
    0.108018000000D+06 0.400000000000D+01 0.000000000000D+00 0.000000000000D+00
